{
  "Milan": {
    "place_name": "Milano",
    "coordinates": {
      "lat": 45.4642,
      "lng": 9.1893
    },
    "confidence": 0.95,
    "historical_context": "In 1718, Milan was a city in the Duchy of Milan, a Habsburg territory.",
    "alternative_names": [
      "Milan",
      "Milano"
    ],
    "modern_equivalent": "Milan, Italy",
    "geocoded_at": "2025-08-10T02:14:32.230906",
    "geocoding_method": "llm",
    "model_version": "llama3.1:8b"
  },
  "Geneva, Republic of Geneva": {
    "place_name": "Genève",
    "coordinates": {
      "lat": 46.2033,
      "lng": 6.1432
    },
    "confidence": 0.95,
    "historical_context": "In 1704, Geneva was an independent republic, not yet part of the Kingdom of Sardinia.",
    "alternative_names": [
      "Geneva",
      "Genève"
    ],
    "modern_equivalent": "Geneva, Switzerland",
    "geocoded_at": "2025-08-10T02:14:41.716551",
    "geocoding_method": "llm",
    "model_version": "llama3.1:8b"
  },
  "Paris, France": {
    "place_name": "Lutèce",
    "coordinates": {
      "lat": 48.8567,
      "lng": 2.2945
    },
    "confidence": 0.9,
    "historical_context": "In 1713, Paris was still known as Lutèce and was a major city in the Kingdom of France.",
    "alternative_names": [
      "Paris"
    ],
    "modern_equivalent": "Paris, France",
    "geocoded_at": "2025-08-10T02:14:51.586020",
    "geocoding_method": "llm",
    "model_version": "llama3.1:8b"
  },
  "Groningen": {
    "place_name": "Groningen",
    "coordinates": {
      "lat": 53.2167,
      "lng": 6.5667
    },
    "confidence": 0.9,
    "historical_context": "In 1700, Groningen was a city in the Dutch Republic, located in the province of Groningen and Ommelanden.",
    "alternative_names": [
      "Groningue",
      "Gröningen"
    ],
    "modern_equivalent": "Groningen",
    "geocoded_at": "2025-08-10T02:15:02.390137",
    "geocoding_method": "llm",
    "model_version": "llama3.1:8b"
  },
  "Paris": {
    "place_name": "Paris",
    "coordinates": {
      "lat": 48.8567,
      "lng": 2.2945
    },
    "confidence": 0.95,
    "historical_context": "Capital of the Kingdom of France in the 18th century.",
    "alternative_names": [
      "La Ville-Lumière",
      "The City of Light"
    ],
    "modern_equivalent": "Paris, France",
    "geocoded_at": "2025-08-10T02:15:12.219035",
    "geocoding_method": "llm",
    "model_version": "llama3.1:8b"
  },
  "maria_gaetana_agnesi": {
    "coordinates": [
      45.4642,
      9.19
    ],
    "place_name": "Italian Mathematical Center",
    "historical_period": "1718-1799",
    "confidence": 0.8
  },
  "johann_ii_bernoulli": {
    "coordinates": [
      47.5596,
      7.5886
    ],
    "place_name": "Swiss Mathematical Center",
    "historical_period": "1710-1790",
    "confidence": 0.8
  },
  "johann_euler": {
    "coordinates": [
      47.5596,
      7.5886
    ],
    "place_name": "Swiss Mathematical Center",
    "historical_period": "1734-1800",
    "confidence": 0.8
  },
  "leonhard_euler": {
    "coordinates": [
      47.5596,
      7.5886
    ],
    "place_name": "Swiss Mathematical Center",
    "historical_period": "1707-1783",
    "confidence": 0.8
  },
  "gabriel_cramer": {
    "coordinates": [
      46.2044,
      6.1432
    ],
    "place_name": "Swiss Mathematical Center",
    "historical_period": "1704-1752",
    "confidence": 0.8
  },
  "johann_iii_bernoulli": {
    "coordinates": [
      47.5596,
      7.5886
    ],
    "place_name": "Swiss Mathematical Center",
    "historical_period": "1744-1807",
    "confidence": 0.8
  },
  "joseph_louis_lagrange": {
    "coordinates": [
      45.0703,
      7.6869
    ],
    "place_name": "French Mathematical Center",
    "historical_period": "1736-1813",
    "confidence": 0.8
  },
  "alexis_clairaut": {
    "coordinates": [
      48.8566,
      2.3522
    ],
    "place_name": "French Mathematical Center",
    "historical_period": "1713-1765",
    "confidence": 0.8
  },
  "daniel_bernoulli": {
    "coordinates": [
      47.5596,
      7.5886
    ],
    "place_name": "Swiss Mathematical Center",
    "historical_period": "1700-1782",
    "confidence": 0.8
  },
  "thomas_bayes": {
    "coordinates": [
      51.5074,
      -0.1278
    ],
    "place_name": "English Mathematical Center",
    "historical_period": "1702-1761",
    "confidence": 0.8
  },
  "jean_le_rond_d'alembert": {
    "coordinates": [
      48.8566,
      2.3522
    ],
    "place_name": "French Mathematical Center",
    "historical_period": "1717-1783",
    "confidence": 0.8
  },
  "pierre_simon_laplace": {
    "coordinates": [
      48.8566,
      2.3522
    ],
    "place_name": "French Mathematical Center",
    "historical_period": "1749-1827",
    "confidence": 0.8
  },
  "johann_heinrich_lambert": {
    "coordinates": [
      52.52,
      13.405
    ],
    "place_name": "German Mathematical Center",
    "historical_period": "1728-1777",
    "confidence": 0.8
  }
}